STARLINK-31313          
1 59088U 24041Q   26068.04005083 -.00003661  00000+0 -12358-3 0  9992
2 59088  43.0024 314.2433 0001874 256.6446 103.4196 15.27572063114174
FLOCK 4G-3              
1 62639U 25009AG  26068.80174065  .00011494  00000+0  43389-3 0  9993
2 62639  97.4062 151.4068 0001320 293.2042  66.9058 15.27179310 63727
